STARLINK-4749           
1 53818U 22114A   22278.91667824 -.00033464  00000+0 -23510-3 0  9994
2 53818  53.2154 175.3029 0001298 119.1956  52.3931 15.73186636  1309
STARLINK-4738           
1 53819U 22114B   22278.91667824 -.00032989  00000+0 -23176-3 0  9994
2 53819  53.2151 175.2956 0000999  78.9760  95.5883 15.73179706  1302
STARLINK-4758           
1 53820U 22114C   22278.91667824 -.00111864  00000+0 -80024-3 0  9991
2 53820  53.2152 175.3018 0001267 114.1313  57.9699 15.73287394  1301
STARLINK-4752           
1 53821U 22114D   22278.91667824 -.00025133  00000+0 -17521-3 0  9997
2 53821  53.2153 175.2975 0001106 102.2024  71.7497 15.73198447  1303
STARLINK-4713           
1 53822U 22114E   22278.89554550  .00885573  11693-4  54153-3 0  9993
2 53822  53.2131 172.5301 0043634 107.1058 253.4978 16.15061824  3272
STARLINK-4748           
1 53823U 22114F   22278.91667824 -.01179114  00000+0 -52829-2 0  9998
2 53823  53.2171 173.9774 0002704 209.7947 248.3529 15.85834893  1302
STARLINK-4757           
1 53824U 22114G   22278.91667824  .00041465  00000+0  29924-3 0  9994
2 53824  53.2168 175.3002 0001492  83.2304  92.5392 15.73133934  1306
STARLINK-4751           
1 53825U 22114H   22278.91667824  .00004584  00000+0  37152-4 0  9999
2 53825  53.2156 175.2962 0001272  84.1145  91.0656 15.73141440  1305
STARLINK-4756           
1 53826U 22114J   22278.91667824  .00042519  00000+0  30642-3 0  9996
2 53826  53.2155 175.2904 0001466 123.6959  54.4426 15.73154720  1301
STARLINK-4764           
1 53827U 22114K   22278.91667824  .00042482  00000+0  30639-3 0  9992
2 53827  53.2153 175.2926 0001527  58.8225 117.4663 15.73137186  1307
STARLINK-4760           
1 53828U 22114L   22278.91667824  .00034092  00000+0  24671-3 0  9990
2 53828  53.2153 175.2888 0000972  98.8017  79.8975 15.73164376  1309
STARLINK-4759           
1 53829U 22114M   22278.91667824 -.00080944  00000+0 -57615-3 0  9994
2 53829  53.2163 175.2961 0001278  57.1529 119.7434 15.73269520  3234
STARLINK-4761           
1 53830U 22114N   22278.91667824 -.00034675  00000+0 -24365-3 0  9992
2 53830  53.2156 175.2866 0001097 101.7342  78.1895 15.73201804  1306
STARLINK-4649           
1 53831U 22114P   22278.91667824  .00044284  00000+0  31910-3 0  9992
2 53831  53.2155 175.2917 0001348 102.3931  75.1185 15.73139722  1301
STARLINK-4747           
1 53832U 22114Q   22278.91667824  .00058631  00000+0  42022-3 0  9990
2 53832  53.2152 175.2836 0001052  97.1737  83.9498 15.73146302  3236
STARLINK-4771           
1 53833U 22114R   22278.91667824  .00067682  00000+0  48347-3 0  9993
2 53833  53.2149 175.2856 0001006 100.9088  78.3599 15.73166341  3231
STARLINK-4737           
1 53834U 22114S   22278.91667824 -.00087889  00000+0 -62714-3 0  9991
2 53834  53.2155 175.2821 0001265 115.6776  66.6347 15.73245084  3238
STARLINK-4783           
1 53835U 22114T   22278.91667824  .00008607  00000+0  65824-4 0  9997
2 53835  53.2149 175.2834 0001224  79.5016 101.0442 15.73147280  1301
STARLINK-4778           
1 53836U 22114U   22278.91667824 -.00084412  00000+0 -60129-3 0  9990
2 53836  53.2166 175.2777 0001096  88.8461  94.5616 15.73269203  3234
STARLINK-4776           
1 53837U 22114V   22278.91667824  .00035546  00000+0  25753-3 0  9997
2 53837  53.2157 175.2843 0001213 102.6587  79.0362 15.73115926  1308
STARLINK-4773           
1 53838U 22114W   22278.91667824  .00065422  00000+0  46777-3 0  9993
2 53838  53.2155 175.2792 0001386  90.2412  93.8341 15.73157635  1304
STARLINK-4784           
1 53839U 22114X   22278.91667824  .00064785  00000+0  46333-3 0  9993
2 53839  53.2158 175.2825 0000863  85.5011  97.3779 15.73155960  1309
STARLINK-4766           
1 53840U 22114Y   22278.91667824 -.00005597  00000+0 -35488-4 0  9993
2 53840  53.2149 175.2733 0001247 103.6945  82.1354 15.73201387  1300
STARLINK-4750           
1 53841U 22114Z   22278.91667824  .00045904  00000+0  33069-3 0  9990
2 53841  53.2155 175.2772 0001197  93.7149  90.9665 15.73129353  3238
STARLINK-4754           
1 53842U 22114AA  22278.91667824  .00060312  00000+0  43240-3 0  9993
2 53842  53.2150 175.2710 0001032  89.6836  97.3834 15.73127415  3237
STARLINK-4769           
1 53843U 22114AB  22278.91667824 -.00089304  00000+0 -63680-3 0  9998
2 53843  53.2165 175.2729 0001039  94.2135  91.0245 15.73268074  3239
STARLINK-4745           
1 53844U 22114AC  22278.91667824  .00055424  00000+0  39781-3 0  9998
2 53844  53.2154 175.2700 0001207  86.8440 101.3743 15.73135257  3234
STARLINK-4753           
1 53845U 22114AD  22278.91667824  .00059600  00000+0  42695-3 0  9997
2 53845  53.2160 175.2760 0001044  87.9819  98.4841 15.73151432  3237
STARLINK-4746           
1 53846U 22114AE  22278.91667824 -.00002111  00000+0 -10638-4 0  9998
2 53846  53.2159 175.2703 0001145 112.7637  76.6829 15.73189788  1305
STARLINK-4777           
1 53847U 22114AF  22278.91667824  .00031481  00000+0  22819-3 0  9992
2 53847  53.2152 175.2699 0001052  97.1485  90.5218 15.73167911  1308
STARLINK-4780           
1 53848U 22114AG  22278.91667824 -.00080175  00000+0 -57054-3 0  9998
2 53848  53.2152 175.2649 0001099 108.0692  82.5450 15.73271556  3231
STARLINK-4770           
1 53849U 22114AH  22278.91667824 -.00089496  00000+0 -63765-3 0  9990
2 53849  53.2160 175.2715 0001144  99.4538  89.3139 15.73287735  3233
STARLINK-4767           
1 53850U 22114AJ  22278.91667824  .00008567  00000+0  65592-4 0  9991
2 53850  53.2151 175.2609 0001309  91.8885 100.6089 15.73128682  1303
STARLINK-4755           
1 53851U 22114AK  22278.91667824 -.00090059  00000+0 -64243-3 0  9992
2 53851  53.2152 175.2664 0001160 114.9866  75.0696 15.73262420  3239
STARLINK-4797           
1 53852U 22114AL  22278.91667824 -.00011103  00000+0 -74809-4 0  9996
2 53852  53.2156 175.2607 0001016 102.2071  91.3781 15.73197100  1303
STARLINK-4794           
1 53853U 22114AM  22278.91667824 -.00009239  00000+0 -61525-4 0  9995
2 53853  53.2164 175.2677 0001193 101.1161  90.1359 15.73184584  1304
STARLINK-4800           
1 53854U 22114AN  22278.91667824 -.00124286  00000+0 -89220-3 0  9997
2 53854  53.2159 175.2597 0001119 101.0668  93.7387 15.73254297  3232
STARLINK-4703           
1 53855U 22114AP  22278.91667824 -.00114655  00000+0 -82130-3 0  9990
2 53855  53.2148 175.2611 0001217 102.0912  89.6900 15.73267461  3232
STARLINK-4795           
1 53856U 22114AQ  22278.91667824  .00121375  00000+0  85993-3 0  9996
2 53856  53.2148 175.2493 0001109 110.4198  87.3715 15.73114192  1307
STARLINK-4809           
1 53857U 22114AR  22278.91667824  .00270279  00000+0  18823-2 0  9992
2 53857  53.2152 175.2603 0001379 105.9448  86.9031 15.73032088  1301
STARLINK-4798           
1 53858U 22114AS  22278.91667824 -.00110491  00000+0 -79056-3 0  9990
2 53858  53.2157 175.2571 0001036 103.8673  91.5074 15.73278534  3239
STARLINK-4790           
1 53859U 22114AT  22278.91667824  .00069012  00000+0  49318-3 0  9999
2 53859  53.2150 175.2568 0001339 100.5914  93.6295 15.73148450  1304
STARLINK-4799           
1 53860U 22114AU  22278.91667824  .00060140  00000+0  43106-3 0  9993
2 53860  53.2148 175.2507 0001092 101.8417  95.3629 15.73134317  1301
STARLINK-4781           
1 53861U 22114AV  22278.91667824  .00043164  00000+0  31138-3 0  9993
2 53861  53.2149 175.2529 0001356  98.2877  97.7337 15.73124686  1309
STARLINK-4792           
1 53862U 22114AW  22278.91667824 -.00039850  00000+0 -28092-3 0  9998
2 53862  53.2150 175.2497 0001133  94.4734 103.9314 15.73195355  1305
STARLINK-4788           
1 53863U 22114AX  22278.91667824  .00015206  00000+0  11286-3 0  9993
2 53863  53.2149 175.2512 0001230  85.7736 110.8719 15.73137368  1301
STARLINK-4779           
1 53864U 22114AY  22278.91667824  .00117070  00000+0  83006-3 0  9995
2 53864  53.2148 175.2461 0000995  98.7137 100.8898 15.73112872  1300
STARLINK-4785           
1 53865U 22114AZ  22278.91667824  .00014992  00000+0  11132-3 0  9996
2 53865  53.2151 175.2477 0001433  96.3933 102.6240 15.73141964  1303
STARLINK-4762           
1 53866U 22114BA  22278.91667824  .00054742  00000+0  39261-3 0  9997
2 53866  53.2148 175.2427 0001111 101.0353 100.3519 15.73158630  3234
STARLINK-4793           
1 53867U 22114BB  22278.91667824  .00062284  00000+0  44598-3 0  9997
2 53867  53.2166 175.2449 0001350 101.6616  98.5296 15.73143731  1304
STARLINK-4789           
1 53868U 22114BC  22278.91667824 -.00026965  00000+0 -18825-3 0  9990
2 53868  53.2160 175.2300 0001295 124.1956  85.7721 15.73208949  1304
STARLINK-4810           
1 53869U 22114BD  22278.91667824  .00142330  00000+0  10070-2 0  9997
2 53869  53.2153 175.2455 0000947 107.2250  93.1307 15.73070369  3230
STARLINK-4732           
1 53870U 22114BE  22278.91667824 -.00093306  00000+0 -66557-3 0  9991
2 53870  53.2151 175.2416 0001013 100.4722 102.0755 15.73278177  3235
STARLINK-4740           
1 53871U 22114BF  22278.91667824  .00047840  00000+0  34393-3 0  9995
2 53871  53.2151 175.2396 0001271 101.6278 101.5436 15.73159815  3235
FALCON 9 DEB            
1 53872U 22114BG  22278.11014084  .07904301  12200-4  60644-3 0  9991
2 53872  53.2075 176.1514 0015466 122.4842 237.7704 16.39084540  3697
FALCON 9 DEB            
1 53873U 22114BH  22278.10980133  .05698875  12131-4  72179-3 0  9991
2 53873  53.1982 176.1389 0018345 115.6633 244.6310 16.34552109  3691
FALCON 9 DEB            
1 53874U 22114BJ  22278.09735837  .06135988  12196-4  62149-3 0  9998
2 53874  53.2108 176.0555 0015337 110.6124 249.6570 16.36751579  3692
FALCON 9 DEB            
1 53875U 22114BK  22277.84558191  .07572429  12266-4  58518-3 0  9996
2 53875  53.2106 177.3208 0012697 108.8541 251.3885 16.39196920  3659
CHUANGXIN 16B (CX-16B)  
1 53876U 22102B   22278.78297135  .00007488  00000+0  71118-3 0  9996
2 53876  28.9984  88.1707 0004974 342.6722  17.3703 14.91872685  2398
